EYESAT A (AO-27)        
1 22825U 93061C   26160.09847172  .00000074  00000+0  45187-4 0  9990
2 22825  98.6881 227.5146 0009411 120.7072 239.5039 14.30940069705843
ITAMSAT (IO-26)         
1 22826U 93061D   26159.94049014  .00000092  00000+0  51394-4 0  9999
2 22826  98.6829 227.2733 0010048 106.4244 253.8044 14.31366725706135
RADIO ROSTO (RS15)      
1 23439U 94085A   26160.13396353 -.00000035  00000+0  20284-3 0  9992
2 23439  64.8186 316.2407 0155702   5.3648 354.8901 11.27583633294997
JAS-2 (FO-29)           
1 24278U 96046B   26160.10433694 -.00000009  00000+0  23943-4 0  9997
2 24278  98.5248  10.0837 0350777 117.3510 246.3789 13.53273744472075
FORTE                   
1 24920U 97047A   26160.03915485  .00000114  00000+0  69009-4 0  9997
2 24920  69.9542  32.4259 0024530 287.2570  72.5868 14.27941978497529
TECHSAT 1B (GO-32)      
1 25397U 98043D   26160.26741352  .00000059  00000+0  45500-4 0  9996
2 25397  99.0065 152.8264 0000598 183.8868 176.2306 14.24426844450204
ISS (ZARYA)             
1 25544U 98067A   26160.19103139  .00006847  00000+0  12924-3 0  9997
2 25544  51.6332 339.6717 0006890 149.5560 210.5830 15.49678250570515
IMAGE                   
1 26113U 00017A   26159.38132848  .00000033  00000+0  15648-1 0  9991
2 26113  94.2210 315.2579 7438912 288.8048   8.8428  1.68665472161358
CLUSTER II-FM7 (SAMBA)  
1 26410U 00041A   26161.44626665  .00004459  00000+0  00000+0 0  9993
2 26410 149.9132  49.6129 9048191 266.6863 359.9829  0.44840364 20284
CLUSTER II-FM8 (TANGO)  
1 26464U 00045B   26157.18212104  .00004544  00000+0  00000+0 0  9996
2 26464 150.1407  49.6985 9046201 266.6195   3.2041  0.44406384 20263
ODIN                    
1 26702U 01007A   26160.08640460  .00135654  00000+0  97686-3 0  9990
2 26702  97.3859 200.5220 0006524 153.1212 207.0391 15.73146623388125
OMNI-M1                 
1 26857U 01026A   26158.03638869 -.00000011  00000+0  00000+0 0  9993
2 26857  44.8338 247.6044 0014500  52.1985 307.9833  3.92401508205177
PCSAT (NO-44)           
1 26931U 01043C   26160.26677914  .00000089  00000+0  64108-4 0  9995
2 26931  67.0511 264.7572 0006107 264.2587  95.7818 14.31953293289315
PROBA-1                 
1 26958U 01049B   26160.30412042  .00002933  00000+0  19134-3 0  9992
2 26958  97.9600 168.5614 0055572 148.3085 212.1508 15.07462919342436
SAUDISAT 1C (SO-50)     
1 27607U 02058C   26160.26567254  .00000928  00000+0  12671-3 0  9997
2 27607  64.5504 153.4942 0075435 263.9417  95.3090 14.83029337263289
CORIOLIS                
1 27640U 03001A   26160.02322940  .00000085  00000+0  60666-4 0  9990
2 27640  98.7126 167.0327 0013009 233.7419 126.2556 14.19942563213065
CUTE-1 (CO-55)          
1 27844U 03031E   26160.23963294  .00000266  00000+0  13415-3 0  9995
2 27844  98.6735 168.8984 0009003 201.6668 158.4131 14.24330800190547
CUBESAT XI-IV (CO-57)   
1 27848U 03031J   26160.01325554  .00000222  00000+0  11652-3 0  9999
2 27848  98.6766 168.3941 0008561 222.5153 137.5363 14.23616414190218
MOZHAETS 4 (RS22)       
1 27939U 03042A   26160.28866682  .00000444  00000+0  76781-4 0  9994
2 27939  98.3475 344.4245 0010175 298.1896 238.5217 14.73452061214380
